FENGYUN 1C DEB          
1 31614U 99025BZU 17284.81864538  .00001650  00000-0  71214-3 0  9995
2 31614  98.9802  13.7173 0070088 116.4353   6.2183 14.24572114535757
FENGYUN 1C DEB          
1 31615U 99025BZV 17284.73416450  .00002609  00000-0  13517-2 0  9999
2 31615  99.1230 246.0754 0252064  27.9010 333.5413 14.00675255531026
FENGYUN 1C DEB          
1 31616U 99025BZW 17264.63894313  .00001956  00000-0  61607-3 0  9993
2 31616  96.5878  43.3491 0107023  41.2558 334.0465 14.37854354 40175
FENGYUN 1C DEB          
1 31617U 99025BZX 17263.89111091  .00000948  00000-0  27970-3 0  9991
2 31617  96.7140 134.5508 0136080 287.0143  71.6177 14.39951348543802
FENGYUN 1C DEB          
1 31618U 99025BZY 17284.98535745  .00000230  00000-0  12106-3 0  9990
2 31618  99.3889 199.1408 0166781  67.2980 294.5728 14.16901157538570
FENGYUN 1C DEB          
1 31619U 99025BZZ 17284.36906400  .00002216  00000-0  91028-3 0  9999
2 31619  99.1244 333.7883 0269679 219.7170 202.3186 14.10281238532543
FENGYUN 1C DEB          
1 31620U 99025CAA 17284.24625345  .00001202  00000-0  64445-3 0  9991
2 31620  99.0359 283.6875 0028518 299.6342  60.1991 14.14818828535630
FENGYUN 1C DEB          
1 31622U 99025CAC 17284.76433095  .00000944  00000-0  49069-3 0  9996
2 31622  98.9968 312.7410 0020194 283.0073 139.1016 14.17101057533630
FENGYUN 1C DEB          
1 31623U 99025CAD 17283.86621035  .00000127  00000-0  13023-3 0  9994
2 31623  97.6289 296.7892 0199331  25.1768 335.8948 13.80264614526790
FENGYUN 1C DEB          
1 31624U 99025CAE 17283.55508367  .00001163  00000-0  38044-3 0  9994
2 31624  99.6626  40.4177 0056152   7.4741  53.6091 14.39885977542456
FENGYUN 1C DEB          
1 31625U 99025CAF 17283.50618235  .00000105  00000-0  34792-4 0  9998
2 31625  98.8329 165.6827 0159565  44.9425  74.7513 14.51176132550651
FENGYUN 1C DEB          
1 31626U 99025CAG 17284.25858251  .00001696  00000-0  69700-3 0  9998
2 31626 101.3139 303.7811 0029672 238.8513 120.9748 14.28754506211497
FENGYUN 1C DEB          
1 31627U 99025CAH 17282.33349280  .00000682  00000-0  32029-3 0  9991
2 31627  98.8027 321.2674 0061726 209.5770 150.1911 14.22398841222097
FENGYUN 1C DEB          
1 31628U 99025CAJ 17284.91820414  .00000727  00000-0  73725-3 0  9999
2 31628 102.2789 313.7958 0186042  38.8852 322.5502 13.74666278521964
FENGYUN 1C DEB          
1 31629U 99025CAK 17284.28191773  .00000928  00000-0  70348-3 0  9990
2 31629 102.1525  47.3614 0135518 140.4457 220.6676 13.93606722527093
FENGYUN 1C DEB          
1 31630U 99025CAL 17283.39888256  .00001224  00000-0  14073-3 0  9995
2 31630  97.9061 131.9469 0323720 124.6617 238.5549 14.56388881551407
FENGYUN 1C DEB          
1 31631U 99025CAM 17284.46576025  .00001655  00000-0  94027-3 0  9998
2 31631  99.3141   5.8823 0193155  86.0588 276.2633 14.02340709217298
FENGYUN 1C DEB          
1 31632U 99025CAN 17284.36605590  .00002641  00000-0  60814-3 0  9991
2 31632  99.0348 111.5395 0139580  33.6885  86.3441 14.50507725545471
FENGYUN 1C DEB          
1 31634U 99025CAQ 17282.66700690  .00000170  00000-0  16251-3 0  9992
2 31634  99.2930 236.6782 0092740 290.9120  68.2132 13.92438115530704
FENGYUN 1C DEB          
1 31635U 99025CAR 17284.68856628  .00001503  00000-0  57499-3 0  9990
2 31635  99.4346 245.4775 0054013 316.4831  43.2094 14.31566448194949
FENGYUN 1C DEB          
1 31636U 99025CAS 17284.55931295  .00005652  00000-0  27190-3 0  9995
2 31636  98.8578  46.5880 0168499 109.6323 252.3174 15.07589906563972
FENGYUN 1C DEB          
1 31639U 99025CAV 17284.29345865  .00000043  00000-0  67980-4 0  9992
2 31639  98.7621  42.0699 0162172 333.4106  54.1090 13.84198744527794
FENGYUN 1C DEB          
1 31640U 99025CAW 17283.25316142  .00004739  00000-0  32692-3 0  9992
2 31640  99.2453  90.4125 0187216 171.8433 188.5901 14.93282765558659
FENGYUN 1C DEB          
1 31642U 99025CAY 17283.42306310  .00000167  00000-0  77212-4 0  9998
2 31642  98.6527   6.3930 0128301  33.8632 327.0659 14.28718625544252
FENGYUN 1C DEB          
1 31643U 99025CAZ 17283.35457358  .00000329  00000-0  25065-3 0  9998
2 31643  98.3586 317.3271 0102334  60.9673   4.5952 13.97198193531203
FENGYUN 1C DEB          
1 31644U 99025CBA 17282.53678507  .00000918  00000-0  20930-3 0  9999
2 31644  98.5924  27.8497 0211021 241.0169 176.1809 14.45761246277417
FENGYUN 1C DEB          
1 31646U 99025CBC 17275.85234891  .00000334  00000-0  21399-3 0  9994
2 31646  99.0041 302.0199 0035685  39.2119 321.1626 14.09901176209810
FENGYUN 1C DEB          
1 31647U 99025CBD 17281.99361921  .00001643  00000-0  87596-3 0  9997
2 31647  98.0631 206.4539 0174254 165.3134 195.3193 14.07018736532395
FENGYUN 1C DEB          
1 31648U 99025CBE 17285.00877587  .00001014  00000-0  79418-3 0  9990
2 31648 102.8167 326.9485 0081188 337.2191  22.5362 13.94498357529311
FENGYUN 1C DEB          
1 31649U 99025CBF 17280.49648888  .00000889  00000-0  94295-3 0  9998
2 31649  98.2003  26.0936 0283794 241.5442 115.6844 13.60449333201286
FENGYUN 1C DEB          
1 31650U 99025CBG 17284.23342198  .00003726  00000-0  10114-2 0  9991
2 31650  95.2191  87.5224 0248862 169.2830 191.3807 14.31080762532798
FENGYUN 1C DEB          
1 31652U 99025CBJ 17274.77702109  .00004075  00000-0  11540-2 0  9995
2 31652  95.9399 114.9245 0134271  78.2414 283.3809 14.40647390539674
FENGYUN 1C DEB          
1 31653U 99025CBK 17284.65209628  .00002201  00000-0  71705-3 0  9991
2 31653  96.6641  87.7930 0110862  33.7874 327.0317 14.35901796178628
FENGYUN 1C DEB          
1 31655U 99025CBM 17283.06878853  .00000342  00000-0  44017-3 0  9999
2 31655  99.2911  11.6662 0338701 126.2618 357.0016 13.47059697193795
FENGYUN 1C DEB          
1 31656U 99025CBN 17285.24306919  .00001070  00000-0  51200-3 0  9992
2 31656  99.2082  83.4728 0032240 341.2379 142.4375 14.21119983539366
FENGYUN 1C DEB          
1 31657U 99025CBP 17284.31168102  .00001031  00000-0  92716-3 0  9994
2 31657 102.2439 328.4986 0183117 330.5748  28.5182 13.80358620215433
FENGYUN 1C DEB          
1 31658U 99025CBQ 17284.00563826  .00001047  00000-0  81096-3 0  9999
2 31658  98.1503 114.6834 0265618 287.5556  69.6744 13.79336233285083
FENGYUN 1C DEB          
1 31659U 99025CBR 17281.08372350  .00001686  00000-0  27832-3 0  9992
2 31659  99.0332 245.6380 0183641  48.1134 313.5567 14.61451903551740
FENGYUN 1C DEB          
1 31660U 99025CBS 17283.31886173  .00000305  00000-0  15404-3 0  9994
2 31660  98.7269 322.2695 0112749 201.2077 158.4406 14.20002401242663
FENGYUN 1C DEB          
1 31661U 99025CBT 17284.73876225  .00000882  00000-0  49851-3 0  9992
2 31661  99.0689 308.9254 0071316  52.2495 359.1059 14.11563302535052
FENGYUN 1C DEB          
1 31663U 99025CBV 17284.16587968  .00000240  00000-0  39821-4 0  9999
2 31663  98.8879 255.0035 0222819 136.1034 225.8114 14.65646001556510
FENGYUN 1C DEB          
1 31664U 99025CBW 17285.29946656  .00000227  00000-0  15150-3 0  9991
2 31664  98.8907 319.3963 0128733 289.7217  69.0103 14.06840562541079
FENGYUN 1C DEB          
1 31665U 99025CBX 17281.82372608  .00000677  00000-0  62074-3 0  9993
2 31665  98.4618 237.1763 0203506  11.3731  18.2055 13.77083086520135
FENGYUN 1C DEB          
1 31666U 99025CBY 17280.61497986  .00001138  00000-0  42314-3 0  9995
2 31666  98.7181 343.1863 0061254  86.2899 274.5287 14.32990904546928
FENGYUN 1C DEB          
1 31667U 99025CBZ 17284.50937665  .00000152  00000-0  91067-4 0  9996
2 31667  98.8968  28.6976 0052824 341.2766  18.6466 14.20333721540467
FENGYUN 1C DEB          
1 31668U 99025CCA 17279.15985547  .00004096  00000-0  10477-2 0  9999
2 31668  96.5443  63.9591 0097948 231.8869 127.3468 14.47933995543078
FENGYUN 1C DEB          
1 31670U 99025CCC 17284.40707034  .00000535  00000-0  58431-3 0  9996
2 31670  98.4324 142.2475 0268720 289.1233  68.0999 13.61959971216042
FENGYUN 1C DEB          
1 31672U 99025CCE 17283.06333841  .00000735  00000-0  30150-3 0  9990
2 31672  98.8432   8.1444 0157918  43.8950 317.4649 14.23598848542801
FENGYUN 1C DEB          
1 31673U 99025CCF 17285.03123089  .00000186  00000-0  87497-4 0  9998
2 31673  99.3039 226.0625 0132129 326.9946  32.3036 14.27870705545984
FENGYUN 1C DEB          
1 31674U 99025CCG 17281.67876410  .00001387  00000-0  70056-3 0  9994
2 31674  98.8608 228.4872 0039312 286.3016  73.3837 14.17487508538742
FENGYUN 1C DEB          
1 31675U 99025CCH 17284.48251560  .00002991  00000-0  16244-2 0  9990
2 31675  98.4454  18.4941 0135764 253.8223 104.7970 14.08465272532441
FENGYUN 1C DEB          
1 31678U 99025CCL 17285.20305823  .00000755  00000-0  17631-3 0  9994
2 31678  98.9578 267.0581 0349384 128.3008 300.2319 14.26493077541950
FENGYUN 1C DEB          
1 31679U 99025CCM 17284.67712851  .00001401  00000-0  42339-3 0  9990
2 31679  98.9644  88.8852 0074215   1.0155 359.1171 14.42554371158599
FENGYUN 1C DEB          
1 31680U 99025CCN 17285.07713435  .00001387  00000-0  17179-3 0  9993
2 31680  99.8427  16.5701 0181046 116.3065 245.6860 14.74113544559577
FENGYUN 1C DEB          
1 31682U 99025CCQ 17284.90920161  .00004622  00000-0  10923-2 0  9996
2 31682  98.7222 323.6037 0031858 296.8629  62.9311 14.54358774542778
FENGYUN 1C DEB          
1 31683U 99025CCR 17284.22677651  .00001636  00000-0  50748-3 0  9997
2 31683  98.7588 283.9123 0072798 286.2745  73.0444 14.41047897227135
FENGYUN 1C DEB          
1 31684U 99025CCS 17276.96368985  .00000892  00000-0  53238-3 0  9997
2 31684  99.0471 334.2537 0060156 119.7972 240.9197 14.08940084207857
FENGYUN 1C DEB          
1 31685U 99025CCT 17285.02493495 -.00000096  00000-0 -29091-4 0  9999
2 31685  99.0637 302.8186 0016409 344.5921  44.2877 14.08822988535066
FENGYUN 1C DEB          
1 31686U 99025CCU 17285.03431809  .00001351  00000-0  17369-3 0  9999
2 31686  98.5024 349.8487 0393018 212.4851 273.3869 14.41094140547220
